{"type": "FeatureCollection", "features": [ {"type": "Feature", "properties": {"norad_id": 60453, "name": "LEGION 4", "group": "resource", "lat": 43.38817100559689, "lon": 160.93668867864605, "alt_km": 519.085548267135, "timestamp": "2025-12-03T17:47:50.370104+00:00", "meta": {"OBJECT_NAME": "LEGION 4", "OBJECT_ID": "2024-146B", "EPOCH": "2025-12-03T11:08:06.232128", "MEAN_MOTION": 15.15661797, "ECCENTRICITY": 0.0009915, "INCLINATION": 45.0381, "RA_OF_ASC_NODE": 91.5747, "ARG_OF_PERICENTER": 262.7987, "MEAN_ANOMALY": 97.1765, "EPHEMERIS_TYPE": 0, "CLASSIFICATION_TYPE": "U", "NORAD_CAT_ID": 60453, "ELEMENT_SET_NO": 999, "REV_AT_EPOCH": 7117, "BSTAR": 0.00046001, "MEAN_MOTION_DOT": 8.655e-05, "MEAN_MOTION_DDOT": 0}, "tle": {"line1": "1 60453U 24146B   25337.46396102  .00008655  00000+0  46001-3 0  9993", "line2": "2 60453  45.0381  91.5747 0009915 262.7987  97.1765 15.15661797 71178"}}, "geometry": {"type": "Point", "coordinates": [160.93668867864605, 43.38817100559689]}}, {"type": "Feature", "properties": {"norad_id": 60989, "name": "SENTINEL-2C", "group": "resource", "lat": 57.95409581271035, "lon": -115.72089678523433, "alt_km": 782.5925570719774, "timestamp": "2025-12-03T17:47:50.370117+00:00", "meta": {"OBJECT_NAME": "SENTINEL-2C", "OBJECT_ID": "2024-157A", "EPOCH": "2025-12-03T10:31:15.128256", "MEAN_MOTION": 14.30824108, "ECCENTRICITY": 0.0001147, "INCLINATION": 98.5614, "RA_OF_ASC_NODE": 50.0556, "ARG_OF_PERICENTER": 101.9489, "MEAN_ANOMALY": 258.1822, "EPHEMERIS_TYPE": 0, "CLASSIFICATION_TYPE": "U", "NORAD_CAT_ID": 60989, "ELEMENT_SET_NO": 999, "REV_AT_EPOCH": 6499, "BSTAR": 0.00011032, "MEAN_MOTION_DOT": 2.46e-06, "MEAN_MOTION_DDOT": 0}, "tle": {"line1": "1 60989U 24157A   25337.43836954  .00000246  00000+0  11032-3 0  9994", "line2": "2 60989  98.5614  50.0556 0001147 101.9489 258.1822 14.30824108 64990"}}, "geometry": {"type": "Point", "coordinates": [-115.72089678523433, 57.95409581271035]}}, {"type": "Feature", "properties": {"norad_id": 61735, "name": "IONOSFERA-M 1", "group": "resource", "lat": -68.90146765797223, "lon": -128.8421236199633, "alt_km": 823.689455440769, "timestamp": "2025-12-03T17:47:50.370127+00:00", "meta": {"OBJECT_NAME": "IONOSFERA-M 1", "OBJECT_ID": "2024-199A", "EPOCH": "2025-12-03T13:03:56.236032", "MEAN_MOTION": 14.22710704, "ECCENTRICITY": 0.0001366, "INCLINATION": 98.7409, "RA_OF_ASC_NODE": 207.4627, "ARG_OF_PERICENTER": 34.6116, "MEAN_ANOMALY": 325.5151, "EPHEMERIS_TYPE": 0, "CLASSIFICATION_TYPE": "U", "NORAD_CAT_ID": 61735, "ELEMENT_SET_NO": 999, "REV_AT_EPOCH": 9988, "BSTAR": 7.5658e-05, "MEAN_MOTION_DOT": 1.25e-06, "MEAN_MOTION_DDOT": 0}, "tle": {"line1": "1 61735U 24199A   25337.54440088  .00000125  00000+0  75658-4 0  9992", "line2": "2 61735  98.7409 207.4627 0001366  34.6116 325.5151 14.22710704 99880"}}, "geometry": {"type": "Point", "coordinates": [-128.8421236199633, -68.90146765797223]}}, {"type": "Feature", "properties": {"norad_id": 61736, "name": "IONOSFERA-M 2", "group": "resource", "lat": 66.43830828895767, "lon": 48.22853699130852, "alt_km": 808.7018686373949, "timestamp": "2025-12-03T17:47:50.370137+00:00", "meta": {"OBJECT_NAME": "IONOSFERA-M 2", "OBJECT_ID": "2024-199B", "EPOCH": "2025-12-03T12:12:34.394688", "MEAN_MOTION": 14.22712763, "ECCENTRICITY": 0.0001383, "INCLINATION": 98.7407, "RA_OF_ASC_NODE": 207.3399, "ARG_OF_PERICENTER": 121.6334, "MEAN_ANOMALY": 238.4979, "EPHEMERIS_TYPE": 0, "CLASSIFICATION_TYPE": "U", "NORAD_CAT_ID": 61736, "ELEMENT_SET_NO": 999, "REV_AT_EPOCH": 10300, "BSTAR": 7.6335e-05, "MEAN_MOTION_DOT": 1.27e-06, "MEAN_MOTION_DDOT": 0}, "tle": {"line1": "1 61736U 24199B   25337.50873142  .00000127  00000+0  76335-4 0  9995", "line2": "2 61736  98.7407 207.3399 0001383 121.6334 238.4979 14.22712763103009"}}, "geometry": {"type": "Point", "coordinates": [48.22853699130852, 66.43830828895767]}}, {"type": "Feature", "properties": {"norad_id": 63772, "name": "BIOMASS", "group": "resource", "lat": -64.10514715135056, "lon": 179.87563498729813, "alt_km": 676.8514195836469, "timestamp": "2025-12-03T17:47:50.370148+00:00", "meta": {"OBJECT_NAME": "BIOMASS", "OBJECT_ID": "2025-090A", "EPOCH": "2025-12-03T11:32:56.497344", "MEAN_MOTION": 14.67534999, "ECCENTRICITY": 0.0001221, "INCLINATION": 98.0704, "RA_OF_ASC_NODE": 162.625, "ARG_OF_PERICENTER": 79.869, "MEAN_ANOMALY": 280.2652, "EPHEMERIS_TYPE": 0, "CLASSIFICATION_TYPE": "U", "NORAD_CAT_ID": 63772, "ELEMENT_SET_NO": 999, "REV_AT_EPOCH": 3198, "BSTAR": 0.00037434, "MEAN_MOTION_DOT": 2.075e-05, "MEAN_MOTION_DDOT": 0}, "tle": {"line1": "1 63772U 25090A   25337.48120946  .00002075  00000+0  37434-3 0  9992", "line2": "2 63772  98.0704 162.6250 0001221  79.8690 280.2652 14.67534999 31985"}}, "geometry": {"type": "Point", "coordinates": [179.87563498729813, -64.10514715135056]}}, {"type": "Feature", "properties": {"norad_id": 64694, "name": "GOSAT-GW (IBUKI GW)", "group": "resource", "lat": 35.930393476374206, "lon": 99.29621732307267, "alt_km": 666.038324960321, "timestamp": "2025-12-03T17:47:50.370158+00:00", "meta": {"OBJECT_NAME": "GOSAT-GW (IBUKI GW)", "OBJECT_ID": "2025-141A", "EPOCH": "2025-11-30T05:41:32.267328", "MEAN_MOTION": 14.67567435, "ECCENTRICITY": 0.00014369, "INCLINATION": 98.0401, "RA_OF_ASC_NODE": 269.9775, "ARG_OF_PERICENTER": 82.921, "MEAN_ANOMALY": 277.2158, "EPHEMERIS_TYPE": 0, "CLASSIFICATION_TYPE": "U", "NORAD_CAT_ID": 64694, "ELEMENT_SET_NO": 999, "REV_AT_EPOCH": 2266, "BSTAR": 0.00019762357, "MEAN_MOTION_DOT": 1.074e-05, "MEAN_MOTION_DDOT": 0}, "tle": {"line1": "1 64694U 25141A   25334.23717902  .00001074  00000+0  19762-3 0  9999", "line2": "2 64694  98.0401 269.9775 0001436  82.9210 277.2158 14.67567435 22660"}}, "geometry": {"type": "Point", "coordinates": [99.29621732307267, 35.930393476374206]}}, {"type": "Feature", "properties": {"norad_id": 64876, "name": "IONOSFERA-M 3", "group": "resource", "lat": -17.50083085894273, "lon": 117.13533544822134, "alt_km": 826.3504904118636, "timestamp": "2025-12-03T17:47:50.370169+00:00", "meta": {"OBJECT_NAME": "IONOSFERA-M 3", "OBJECT_ID": "2025-155A", "EPOCH": "2025-12-03T11:48:09.730656", "MEAN_MOTION": 14.2143721, "ECCENTRICITY": 0.0002393, "INCLINATION": 98.577, "RA_OF_ASC_NODE": 299.6203, "ARG_OF_PERICENTER": 74.4493, "MEAN_ANOMALY": 285.6949, "EPHEMERIS_TYPE": 0, "CLASSIFICATION_TYPE": "U", "NORAD_CAT_ID": 64876, "ELEMENT_SET_NO": 999, "REV_AT_EPOCH": 1860, "BSTAR": 7.2426e-05, "MEAN_MOTION_DOT": 1.16e-06, "MEAN_MOTION_DDOT": 0}, "tle": {"line1": "1 64876U 25155A   25337.49177929  .00000116  00000+0  72426-4 0  9999", "line2": "2 64876  98.5770 299.6203 0002393  74.4493 285.6949 14.21437210 18601"}}, "geometry": {"type": "Point", "coordinates": [117.13533544822134, -17.50083085894273]}}, {"type": "Feature", "properties": {"norad_id": 64877, "name": "IONOSFERA-M 4", "group": "resource", "lat": 17.854610772065286, "lon": -63.00385902812632, "alt_km": 820.0975805489306, "timestamp": "2025-12-03T17:47:50.370179+00:00", "meta": {"OBJECT_NAME": "IONOSFERA-M 4", "OBJECT_ID": "2025-155B", "EPOCH": "2025-12-03T12:38:40.026624", "MEAN_MOTION": 14.21438323, "ECCENTRICITY": 0.0001742, "INCLINATION": 98.5768, "RA_OF_ASC_NODE": 299.574, "ARG_OF_PERICENTER": 72.9475, "MEAN_ANOMALY": 287.1894, "EPHEMERIS_TYPE": 0, "CLASSIFICATION_TYPE": "U", "NORAD_CAT_ID": 64877, "ELEMENT_SET_NO": 999, "REV_AT_EPOCH": 1860, "BSTAR": 7.7585e-05, "MEAN_MOTION_DOT": 1.27e-06, "MEAN_MOTION_DDOT": 0}, "tle": {"line1": "1 64877U 25155B   25337.52685216  .00000127  00000+0  77585-4 0  9990", "line2": "2 64877  98.5768 299.5740 0001742  72.9475 287.1894 14.21438323 18606"}}, "geometry": {"type": "Point", "coordinates": [-63.00385902812632, 17.854610772065286]}}, {"type": "Feature", "properties": {"norad_id": 64899, "name": "MICROCARB", "group": "resource", "lat": -23.667187553906523, "lon": 56.766435901507485, "alt_km": 671.2367860369322, "timestamp": "2025-12-03T17:47:50.370190+00:00", "meta": {"OBJECT_NAME": "MICROCARB", "OBJECT_ID": "2025-156A", "EPOCH": "2025-12-03T04:51:17.943264", "MEAN_MOTION": 14.72030926, "ECCENTRICITY": 0.0016515, "INCLINATION": 98.0035, "RA_OF_ASC_NODE": 52.7004, "ARG_OF_PERICENTER": 174.3539, "MEAN_ANOMALY": 185.7857, "EPHEMERIS_TYPE": 0, "CLASSIFICATION_TYPE": "U", "NORAD_CAT_ID": 64899, "ELEMENT_SET_NO": 999, "REV_AT_EPOCH": 1913, "BSTAR": 0.00017718925, "MEAN_MOTION_DOT": 1.065e-05, "MEAN_MOTION_DDOT": 0}, "tle": {"line1": "1 64899U 25156A   25337.20229101  .00001065  00000+0  17719-3 0  9991", "line2": "2 64899  98.0035  52.7004 0016515 174.3539 185.7857 14.72030926 19130"}}, "geometry": {"type": "Point", "coordinates": [56.766435901507485, -23.667187553906523]}}, {"type": "Feature", "properties": {"norad_id": 64900, "name": "CO3D 3", "group": "resource", "lat": 50.56893417914146, "lon": -117.3054455034899, "alt_km": 436.33815187056916, "timestamp": "2025-12-03T17:47:50.370201+00:00", "meta": {"OBJECT_NAME": "CO3D 3", "OBJECT_ID": "2025-156B", "EPOCH": "2025-11-29T13:08:11.122944", "MEAN_MOTION": 15.11495615, "ECCENTRICITY": 0.01368669, "INCLINATION": 97.6723, "RA_OF_ASC_NODE": 49.0485, "ARG_OF_PERICENTER": 160.1625, "MEAN_ANOMALY": 200.5002, "EPHEMERIS_TYPE": 0, "CLASSIFICATION_TYPE": "U", "NORAD_CAT_ID": 64900, "ELEMENT_SET_NO": 999, "REV_AT_EPOCH": 1920, "BSTAR": 0.00046350794, "MEAN_MOTION_DOT": 9.779e-05, "MEAN_MOTION_DDOT": 0}, "tle": {"line1": "1 64900U 25156B   25333.54735096  .00009779  00000+0  46351-3 0  9996", "line2": "2 64900  97.6723  49.0485 0136866 160.1625 200.5002 15.11495615 19205"}}, "geometry": {"type": "Point", "coordinates": [-117.3054455034899, 50.56893417914146]}}]}